              M50 Cartesian                         J2K Cartesian  
    -----------------------------------       --------------------------------
     X    =        6079598.70                 X    =         1922210.33
     Y    =      -12896795.06  feet           Y    =        -3909834.92  meter
     Z    =      -17107538.81                 Z    =        -5205207.58
     XDOT =      19718.498074                 XDOT =        5965.064751
     YDOT =      14966.661886  feet/sec       YDOT =        4628.796073  meter/sec
     ZDOT =      -4271.785240                 ZDOT =       -1272.953814
 
              TDR Cartesian                         TDR Cartesian  
    -----------------------------------       --------------------------------
     X    =        2313634.01                 X    =          705195.65
     Y    =      -14118200.17  feet           Y    =        -4303227.41  meter
     Z    =      -17066934.38                 Z    =        -5202001.60
     XDOT =      22127.244877                 XDOT =        6744.384239
     YDOT =       8642.723024  feet/sec       YDOT =        2634.301978  meter/sec
     ZDOT =      -4146.243365                 ZDOT =       -1263.774978
  
  
    The mean element set is posted at the UTC for which position is
    just north of the next ascending node relative to the above
    vector time
 
 
    TWO LINE MEAN ELEMENT SET
  
    ISS
    1 25544U 98067A   16099.51826743  .00016717  00000-0  10270-3 0  9042
    2 25544  51.6420  45.5233 0002596  36.7259 323.4071 15.54403403 34147
  
  
    Satellite: ISS
    Catalog Number: 25544
    Epoch time:      16099.51826743   =   yrday.fracday
    Element set:     904
    Inclination:       51.6420  deg
    RA of node:        45.5233  deg
    Eccentricity:     .0002596     
    Arg of perigee:    36.7259  deg
    Mean anomaly:     323.4071  deg
    Mean motion:   15.54403403  rev/day
    Decay rate:    1.67170E-04  rev/day^2
    Epoch rev:            3414
    Checksum:              293
 
 
    Coasting Arc #6 (Orbit 3429)
    ---------------------------------------
 
    Vector Time (GMT): 2016/100/12:00:00.000
    Vector Time (MET): N/A
    Weight (LBS)     : 922442.8
 
              M50 Cartesian                         M50 Keplerian  
    -----------------------------------       --------------------------------
     X    =       -3312072.47                 A    =         6776677.29  meter
     Y    =        2639502.09  meter          E    =           .0005766
     Z    =        5286789.09                 I    =           51.86335
     XDOT =      -5456.013785                 Wp   =           50.56538
     YDOT =      -5342.325701  meter/sec      RA   =           39.99328  deg
     ZDOT =       -746.744124                 TA   =           46.56673
                                              MA   =           46.51876
                                              Ha   =            221.383  n.mi
                                              Hp   =            213.552
 
              M50 Cartesian                         J2K Cartesian  
    -----------------------------------       --------------------------------
     X    =      -10866379.49                 X    =        -3367023.22
     Y    =        8659783.77  feet           Y    =         2602157.52  meter
     Z    =       17345108.56                 Z    =         5270565.92
     XDOT =     -17900.307694                 XDOT =       -5392.241646
     YDOT =     -17527.315293  feet/sec       YDOT =       -5402.981971  meter/sec
     ZDOT =      -2449.947913                 ZDOT =        -773.093110
 
              TDR Cartesian                         TDR Cartesian  
    -----------------------------------       --------------------------------
     X    =       -7902639.79                 X    =        -2408724.61
     Y    =       11535890.97  feet           Y    =         3516139.57  meter
     Z    =       17274094.86                 Z    =         5265144.11
     XDOT =     -21448.895597                 XDOT =       -6537.623378
     YDOT =     -10834.692200  feet/sec       YDOT =       -3302.414183  meter/sec
     ZDOT =      -2563.428355                 ZDOT =        -781.332963
  
  
    The mean element set is posted at the UTC for which position is
    just north of the next ascending node relative to the above
    vector time
 
 
    TWO LINE MEAN ELEMENT SET
  
    ISS
    1 25544U 98067A   16100.54691166  .00016717  00000-0  10270-3 0  9058
    2 25544  51.6424  40.3944 0002687  38.6735 321.4610 15.54427191 34309
  
  
    Satellite: ISS
    Catalog Number: 25544
    Epoch time:      16100.54691166   =   yrday.fracday
    Element set:     905
    Inclination:       51.6424  deg
    RA of node:        40.3944  deg
    Eccentricity:     .0002687     
    Arg of perigee:    38.6735  deg
    Mean anomaly:     321.4610  deg
    Mean motion:   15.54427191  rev/day
    Decay rate:    1.67170E-04  rev/day^2
    Epoch rev:            3430
    Checksum:              291
 
 
    Coasting Arc #7 (Orbit 3444)
    ---------------------------------------
 
    Vector Time (GMT): 2016/101/12:00:00.000
    Vector Time (MET): N/A
    Weight (LBS)     : 944180.3
 
              M50 Cartesian                         M50 Keplerian  
    -----------------------------------       --------------------------------
     X    =        4643403.59                 A    =         6778934.81  meter
     Y    =       -1322740.14  meter          E    =           .0012356
     Z    =       -4769720.47                 I    =           51.84528
     XDOT =       4386.964754                 Wp   =           97.18621
     YDOT =       5666.259176  meter/sec      RA   =           35.00804  deg
     ZDOT =       2703.908629                 TA   =          199.46639
                                              MA   =          199.51362
                                              Ha   =            221.314  n.mi
                                              Hp   =            213.608
 
              M50 Cartesian                         J2K Cartesian  
    -----------------------------------       --------------------------------
     X    =       15234263.75                 X    =         4681019.26
     Y    =       -4339698.63  feet           Y    =        -1270604.51  meter
     Z    =      -15648689.19                 Z    =        -4747072.21
     XDOT =      14392.928984                 XDOT =        4310.142577
     YDOT =      18590.089159  feet/sec       YDOT =        5714.887774  meter/sec
     ZDOT =       8871.091304                 ZDOT =        2725.032730
 
              TDR Cartesian                         TDR Cartesian  
    -----------------------------------       --------------------------------
     X    =       13196070.31                 X    =         4022162.23
     Y    =       -8936345.66  feet           Y    =        -2723798.16  meter
     Z    =      -15550006.57                 Z    =        -4739642.00
     XDOT =      18796.172763                 XDOT =        5729.073458
     YDOT =      12187.353535  feet/sec       YDOT =        3714.705357  meter/sec
     ZDOT =       8961.788643                 ZDOT =        2731.553178
  
  
    The mean element set is posted at the UTC for which position is
    just north of the next ascending node relative to the above
    vector time
 
 
    TWO LINE MEAN ELEMENT SET
  
    ISS
    1 25544U 98067A   16101.51125735  .00016717  00000-0  10270-3 0  9061
    2 25544  51.6420  35.5854 0002679  43.3104 316.8259 15.54433176 34458
  
  
    Satellite: ISS
    Catalog Number: 25544
    Epoch time:      16101.51125735   =   yrday.fracday
    Element set:     906
    Inclination:       51.6420  deg
    RA of node:        35.5854  deg
    Eccentricity:     .0002679     
    Arg of perigee:    43.3104  deg
    Mean anomaly:     316.8259  deg
    Mean motion:   15.54433176  rev/day
    Decay rate:    1.67170E-04  rev/day^2
    Epoch rev:            3445
    Checksum:              293
 
 
    Coasting Arc #8 (Orbit 3460)
    ---------------------------------------
 
    Vector Time (GMT): 2016/102/12:00:00.000
    Vector Time (MET): N/A
    Weight (LBS)     : 944180.3
 
              M50 Cartesian                         M50 Keplerian  
    -----------------------------------       --------------------------------
     X    =       -5699852.75                 A    =         6782787.75  meter
     Y    =          34532.59  meter          E    =           .0013991
     Z    =        3667182.37                 I    =           51.83214
     XDOT =      -2857.115023                 Wp   =           78.58952
     YDOT =      -5620.035654  meter/sec      RA   =           30.03059  deg
     ZDOT =      -4371.057350                 TA   =           57.92295
                                              MA   =           57.78718
                                              Ha   =            221.347  n.mi
                                              Hp   =            213.487
 
              M50 Cartesian                         J2K Cartesian  
    -----------------------------------       --------------------------------
     X    =      -18700304.30                 X    =        -5717629.06
     Y    =         113295.91  feet           Y    =          -29306.15  meter
     Z    =       12031438.21                 Z    =         3639450.43
     XDOT =      -9373.736953                 XDOT =       -2772.825092
     YDOT =     -18438.437184  feet/sec       YDOT =       -5651.514746  meter/sec
     ZDOT =     -14340.739337                 ZDOT =       -4384.731628
 
